NORAD_CAT_ID,OBJECT_NAME,OBJECT_TYPE,EPOCH,MEAN_MOTION,ECCENTRICITY,INCLINATION,RA_OF_ASC_NODE,ARG_OF_PERICENTER,MEAN_ANOMALY,BSTAR,MEAN_MOTION_DOT,MEAN_MOTION_DDOT,TLE_LINE0,TLE_LINE1,TLE_LINE2,SEMIMAJOR_AXIS,PERIOD,APOGEE,PERIGEE,DECAYED
54791.0,STARLINK-5425,PAYLOAD,2024-03-29 22:47:21,15.08844649,0.0001564,53.2173,335.2146,88.2245,271.8926,0.00021222,3.092e-05,0.0,0 STARLINK-5425,1 54791U 22175AK  24089.94955653  .00003092  00000-0  21222-3 0  9998,2 54791  53.2173 335.2146 0001564  88.2245 271.8926 15.08844649 72988,6917.866,95.437,540.813,538.649,0.0
54791.0,STARLINK-5425,PAYLOAD,2024-03-30 01:58:07,15.08849234,0.0001467,53.2172,334.6195,94.7378,265.3782,0.00032064,4.82e-05,0.0,0 STARLINK-5425,1 54791U 22175AK  24090.08203580  .00004820  00000-0  32064-3 0  9996,2 54791  53.2172 334.6195 0001467  94.7378 265.3782 15.08849234 73002,6917.852,95.437,540.732,538.702,0.0
54791.0,STARLINK-5425,PAYLOAD,2024-03-30 21:02:45,15.08841792,0.0001388,53.216,331.0495,90.1087,270.0064,0.00014485,2.018e-05,0.0,0 STARLINK-5425,1 54791U 22175AK  24090.87691862  .00002018  00000-0  14485-3 0  9991,2 54791  53.2160 331.0495 0001388  90.1087 270.0064 15.08841792 70961,6917.875,95.437,540.7,538.78,0.0
54791.0,STARLINK-5425,PAYLOAD,2024-03-30 22:38:09,15.08846908,0.0001496,53.2156,330.7538,79.1435,280.9725,0.00037371,5.666e-05,0.0,0 STARLINK-5425,1 54791U 22175AK  24090.94315995  .00005666  00000-0  37371-3 0  9990,2 54791  53.2156 330.7538 0001496  79.1435 280.9725 15.08846908 73134,6917.859,95.437,540.759,538.689,0.0
54791.0,STARLINK-5425,PAYLOAD,2024-03-31 01:48:55,15.08847834,0.0001406,53.2174,330.1598,77.261,282.8539,0.00038593,5.861e-05,0.0,0 STARLINK-5425,1 54791U 22175AK  24091.07563943  .00005861  00000-0  38593-3 0  9997,2 54791  53.2174 330.1598 0001406  77.2610 282.8539 15.08847834 73154,6917.856,95.437,540.694,538.749,0.0
54791.0,STARLINK-5425,PAYLOAD,2024-03-31 19:18:10,15.08837742,0.0001389,53.217,326.886,79.5644,280.5505,0.000124,1.686e-05,0.0,0 STARLINK-5425,1 54791U 22175AK  24091.80428252  .00001686  00000-0  12400-3 0  9991,2 54791  53.2170 326.8860 0001389  79.5644 280.5505 15.08837742 71104,6917.887,95.438,540.713,538.791,0.0
54791.0,STARLINK-5425,PAYLOAD,2024-03-31 22:28:56,15.08837891,0.0001418,53.2172,326.2918,84.8418,275.2736,9.3212e-05,1.196e-05,0.0,0 STARLINK-5425,1 54791U 22175AK  24091.93676295  .00001196  00000-0  93212-4 0  9994,2 54791  53.2172 326.2918 0001418  84.8418 275.2736 15.08837891 73288,6917.887,95.438,540.733,538.771,0.0
54791.0,STARLINK-5425,PAYLOAD,2024-04-01 08:01:14,15.08847929,0.0001339,53.2179,324.5076,81.4381,278.6763,0.00017312,2.469e-05,0.0,0 STARLINK-5425,1 54791U 22175AK  24092.33419740  .00002469  00000-0  17312-3 0  9999,2 54791  53.2179 324.5076 0001339  81.4381 278.6763 15.08847929 71182,6917.856,95.437,540.647,538.795,0.0
54791.0,STARLINK-5425,PAYLOAD,2024-04-01 19:08:57,15.08839126,0.0001515,53.2191,322.4332,90.1236,269.993,7.0049e-05,8.27e-06,0.0,0 STARLINK-5425,1 54791U 22175AK  24092.79788449  .00000827  00000-0  70049-4 0  9997,2 54791  53.2191 322.4332 0001515  90.1236 269.9930 15.08839126 71257,6917.883,95.438,540.796,538.7,0.0
54791.0,STARLINK-5425,PAYLOAD,2024-04-02 07:52:02,15.08842009,0.0001567,53.219,320.0542,92.1401,267.977,5.1048e-05,5.25e-06,0.0,0 STARLINK-5425,1 54791U 22175AK  24093.32780107  .00000525  00000-0  51048-4 0  9993,2 54791  53.2190 320.0542 0001567  92.1401 267.9770 15.08842009 73498,6917.874,95.437,540.823,538.655,0.0
54791.0,STARLINK-5425,PAYLOAD,2024-04-02 18:59:44,15.08824921,0.0001425,53.218,317.9702,93.5504,266.5651,-0.00013112,-2.373e-05,0.0,0 STARLINK-5425,1 54791U 22175AK  24093.79149241 -.00002373  00000-0 -13112-3 0  9996,2 54791  53.2180 317.9702 0001425  93.5504 266.5651 15.08824921 71407,6917.926,95.439,540.777,538.806,0.0
54791.0,STARLINK-5425,PAYLOAD,2024-04-02 22:10:31,15.08825037,0.0001464,53.2181,317.3762,98.1469,261.969,-0.00011985,-2.194e-05,0.0,0 STARLINK-5425,1 54791U 22175AK  24093.92397332 -.00002194  00000-0 -11985-3 0  9994,2 54791  53.2181 317.3762 0001464  98.1469 261.9690 15.08825037 73584,6917.926,95.439,540.804,538.778,0.0
54791.0,STARLINK-5425,PAYLOAD,2024-04-03 07:42:49,15.08833691,0.0001445,53.2179,315.5904,90.7668,269.349,-4.7123e-06,-3.63e-06,0.0,0 STARLINK-5425,1 54791U 22175AK  24094.32141161 -.00000363  00000-0 -47123-5 0  9997,2 54791  53.2179 315.5904 0001445  90.7668 269.3490 15.08833691 71489,6917.9,95.438,540.764,538.765,0.0
54791.0,STARLINK-5425,PAYLOAD,2024-04-03 20:25:54,15.08843781,0.0001341,53.2168,313.2106,96.2008,263.9137,0.00019131,2.758e-05,0.0,0 STARLINK-5425,1 54791U 22175AK  24094.85132863  .00002758  00000-0  19131-3 0  9998,2 54791  53.2168 313.2106 0001341  96.2008 263.9137 15.08843781 73728,6917.869,95.437,540.662,538.806,0.0
54791.0,STARLINK-5425,PAYLOAD,2024-04-03 23:36:40,15.0884835,0.000158,53.217,312.6162,117.4421,242.6732,0.00020276,2.941e-05,0.0,0 STARLINK-5425,1 54791U 22175AK  24094.98380645  .00002941  00000-0  20276-3 0  9991,2 54791  53.2170 312.6162 0001580 117.4421 242.6732 15.08848350 71580,6917.855,95.437,540.813,538.627,0.0
54791.0,STARLINK-5425,PAYLOAD,2024-04-04 07:33:36,15.08852513,0.0001277,53.2162,311.1286,91.3287,268.7852,0.00041559,6.335e-05,0.0,0 STARLINK-5425,1 54791U 22175AK  24095.31500598  .00006335  00000-0  41559-3 0  9998,2 54791  53.2162 311.1286 0001277  91.3287 268.7852 15.08852513 73798,6917.842,95.437,540.591,538.824,0.0
54791.0,STARLINK-5425,PAYLOAD,2024-04-04 20:16:41,15.08847081,0.0001403,53.2162,308.7505,86.4561,273.6592,0.00026553,3.941e-05,0.0,0 STARLINK-5425,1 54791U 22175AK  24095.84492755  .00003941  00000-0  26553-3 0  9998,2 54791  53.2162 308.7505 0001403  86.4561 273.6592 15.08847081 71715,6917.859,95.437,540.694,538.753,0.0
54791.0,STARLINK-5425,PAYLOAD,2024-04-04 21:52:04,15.08846819,0.000144,53.2162,308.4541,87.6317,272.484,0.00025054,3.702e-05,0.0,0 STARLINK-5425,1 54791U 22175AK  24095.91116725  .00003702  00000-0  25054-3 0  9996,2 54791  53.2162 308.4541 0001440  87.6317 272.4840 15.08846819 73886,6917.86,95.437,540.721,538.728,0.0
54791.0,STARLINK-5425,PAYLOAD,2024-04-05 13:45:55,15.08857357,0.0002187,53.2164,305.4771,86.464,273.6603,0.00030176,4.52e-05,0.0,0 STARLINK-5425,1 54791U 22175AK  24096.57356182  .00004520  00000-0  30176-3 0  9992,2 54791  53.2164 305.4771 0002187  86.4640 273.6603 15.08857357 73985,6917.827,95.436,541.205,538.179,0.0
54791.0,STARLINK-5425,PAYLOAD,2024-04-05 20:07:28,15.08848371,0.0001515,53.2174,304.2878,105.8936,254.2223,6.4667e-05,7.42e-06,0.0,0 STARLINK-5425,1 54791U 22175AK  24096.83852140  .00000742  00000-0  64667-4 0  9991,2 54791  53.2174 304.2878 0001515 105.8936 254.2223 15.08848371 74024,6917.855,95.437,540.768,538.672,0.0
54791.0,STARLINK-5425,PAYLOAD,2024-04-06 07:15:10,15.08850147,0.0001693,53.2177,302.2052,96.3049,263.8136,0.00012693,1.733e-05,0.0,0 STARLINK-5425,1 54791U 22175AK  24097.30219937  .00001733  00000-0  12693-3 0  9997,2 54791  53.2177 302.2052 0001693  96.3049 263.8136 15.08850147 74095,6917.849,95.437,540.886,538.543,0.0
54791.0,STARLINK-5425,PAYLOAD,2024-04-06 19:58:15,15.08846935,0.0001759,53.2196,299.8281,88.1414,271.9779,0.00011489,1.541e-05,0.0,0 STARLINK-5425,1 54791U 22175AK  24097.83212039  .00001541  00000-0  11489-3 0  9990,2 54791  53.2196 299.8281 0001759  88.1414 271.9779 15.08846935 74171,6917.859,95.437,540.941,538.507,0.0
54791.0,STARLINK-5425,PAYLOAD,2024-04-07 13:27:28,15.08862601,0.000162,53.2193,296.5585,83.4963,276.6214,0.00037405,5.674e-05,0.0,0 STARLINK-5425,1 54791U 22175AK  24098.56074794  .00005674  00000-0  37405-3 0  9992,2 54791  53.2193 296.5585 0001620  83.4963 276.6214 15.08862601 74289,6917.811,95.436,540.797,538.556,0.0
54791.0,STARLINK-5425,PAYLOAD,2024-04-07 19:49:01,15.08857132,0.000111,53.2182,295.3656,96.3148,263.797,0.00026396,3.918e-05,0.0,0 STARLINK-5425,1 54791U 22175AK  24098.82570828  .00003918  00000-0  26396-3 0  9996,2 54791  53.2182 295.3656 0001110  96.3148 263.7970 15.08857132 72169,6917.828,95.436,540.461,538.925,0.0
54791.0,STARLINK-5425,PAYLOAD,2024-04-08 13:18:16,15.08834747,0.0001221,53.2156,292.0964,87.1395,272.9737,1.9795e-05,2.7e-07,0.0,0 STARLINK-5425,1 54791U 22175AK  24099.55435978  .00000027  00000-0  19795-4 0  9997,2 54791  53.2156 292.0964 0001221  87.1395 272.9737 15.08834747 72273,6917.896,95.438,540.606,538.917,0.0
54791.0,STARLINK-5425,PAYLOAD,2024-04-08 22:50:35,15.08838242,0.0001265,53.2164,290.3132,88.3317,271.782,-0.00011245,-2.077e-05,0.0,0 STARLINK-5425,1 54791U 22175AK  24099.95179801 -.00002077  00000-0 -11245-3 0  9991,2 54791  53.2164 290.3132 0001265  88.3317 271.7820 15.08838242 74495,6917.886,95.438,540.626,538.876,0.0
54791.0,STARLINK-5425,PAYLOAD,2024-04-09 05:12:07,15.08837826,0.0001413,53.2184,289.1244,90.1165,269.9989,-9.3297e-05,-1.772e-05,0.0,0 STARLINK-5425,1 54791U 22175AK  24100.21675876 -.00001772  00000-0 -93297-4 0  9995,2 54791  53.2184 289.1244 0001413  90.1165 269.9989 15.08837826 74531,6917.887,95.438,540.73,538.775,0.0
54791.0,STARLINK-5425,PAYLOAD,2024-04-09 19:30:35,15.08848609,0.0001613,53.2186,286.4483,91.2661,268.8516,-0.00041982,-6.965e-05,0.0,0 STARLINK-5425,1 54791U 22175AK  24100.81291427 -.00006965  00000-0 -41982-3 0  9999,2 54791  53.2186 286.4483 0001613  91.2661 268.8516 15.08848609 72468,6917.854,95.437,540.835,538.603,0.0
54791.0,STARLINK-5425,PAYLOAD,2024-04-10 05:02:55,15.08833429,0.0001726,53.2197,284.6645,95.2822,264.8368,0.00021758,3.176e-05,0.0,0 STARLINK-5425,1 54791U 22175AK  24101.21036756  .00003176  00000-0  21758-3 0  9994,2 54791  53.2197 284.6645 0001726  95.2822 264.8368 15.08833429 72520,6917.9,95.438,540.96,538.571,0.0
54791.0,STARLINK-5425,PAYLOAD,2024-04-10 12:59:51,15.08832203,0.0001754,53.2208,283.177,92.113,268.0063,0.00013192,1.812e-05,0.0,0 STARLINK-5425,1 54791U 22175AK  24101.54156982  .00001812  00000-0  13192-3 0  9992,2 54791  53.2208 283.1770 0001754  92.1130 268.0063 15.08832203 74737,6917.904,95.438,540.983,538.556,0.0
